{
  "type": "FeatureCollection",
  "features": [
    {
      "type": "Feature",
      "properties": {
        "name": "Ruta Andina \u2014 Tramo Piloto",
        "distance_km": 11.62,
        "max_ele": 3901.44,
        "min_ele": 3650.67
      },
      "geometry": {
        "type": "LineString",
        "coordinates": [
          [
            -74.28426128899274,
            -13.227978923023306,
            3651.78
          ],
          [
            -74.2842612884412,
            -13.227978923624672,
            3651.78
          ],
          [
            -74.28426128726213,
            -13.22797892651367,
            3651.78
          ],
          [
            -74.28426128227318,
            -13.227978941091532,
            3651.78
          ],
          [
            -74.28426126827503,
            -13.227978983325213,
            3651.78
          ],
          [
            -74.28426123890145,
            -13.227979072785507,
            3651.79
          ],
          [
            -74.28426141088069,
            -13.227978309985485,
            3651.76
          ],
          [
            -74.28426169764815,
            -13.22797705124978,
            3651.72
          ],
          [
            -74.2842620783951,
            -13.227975388320035,
            3651.66
          ],
          [
            -74.28426250583489,
            -13.22797352716907,
            3651.6
          ],
          [
            -74.28426318885174,
            -13.227970111072114,
            3651.54
          ],
          [
            -74.28426385423634,
            -13.227966943287164,
            3651.5
          ],
          [
            -74.28426442351531,
            -13.22796422743816,
            3651.47
          ],
          [
            -74.28426488016281,
            -13.227962044372278,
            3651.44
          ],
          [
            -74.28426522705799,
            -13.227960382031233,
            3651.42
          ],
          [
            -74.28426547628061,
            -13.227959184024314,
            3651.41
          ],
          [
            -74.28426564275306,
            -13.227958380020898,
            3651.41
          ],
          [
            -74.28426574116189,
            -13.22795790053965,
            3651.41
          ],
          [
            -74.28426578481928,
            -13.227957682469782,
            3651.41
          ],
          [
            -74.28426578543002,
            -13.227957670244026,
            3651.42
          ],
          [
            -74.28426575318073,
            -13.227957815451749,
            3651.42
          ],
          [
            -74.28426844138369,
            -13.227956749026495,
            3651.43
          ],
          [
            -74.28427145643134,
            -13.227955991932799,
            3651.47
          ],
          [
            -74.28427453586812,
            -13.227954484533027,
            3651.53
          ],
          [
            -74.28427704118208,
            -13.227953326620028,
            3651.59
          ],
          [
            -74.28427710603394,
            -13.227954001412927,
            3651.52
          ],
          [
            -74.28427483675512,
            -13.227957032400985,
            3651.46
          ],
          [
            -74.28427191746133,
            -13.227958912769067,
            3651.37
          ],
          [
            -74.28426893665112,
            -13.22796142763836,
            3651.25
          ],
          [
            -74.28426599762241,
            -13.227964399618587,
            3651.11
          ],
          [
            -74.28426344660876,
            -13.227967014649716,
            3650.98
          ],
          [
            -74.28426135621949,
            -13.227969147374154,
            3650.89
          ],
          [
            -74.28425968630037,
            -13.22797084180445,
            3650.81
          ],
          [
            -74.2842583916804,
            -13.227972146646879,
            3650.76
          ],
          [
            -74.28425742509266,
            -13.227973112332775,
            3650.72
          ],
          [
            -74.2842567394148,
            -13.227973788756938,
            3650.69
          ],
          [
            -74.28425628932224,
            -13.227974223623516,
            3650.67
          ],
          [
            -74.28425603244894,
            -13.227974461299041,
            3650.67
          ],
          [
            -74.28425593014434,
            -13.227974542079297,
            3650.67
          ],
          [
            -74.28425594790637,
            -13.22797450178693,
            3650.68
          ],
          [
            -74.28425605555934,
            -13.227974371627804,
            3650.69
          ],
          [
            -74.28425622723607,
            -13.227974178244668,
            3650.7
          ],
          [
            -74.28425432942848,
            -13.227972898001047,
            3650.77
          ],
          [
            -74.28425297471931,
            -13.227971955332517,
            3650.84
          ],
          [
            -74.28425193562639,
            -13.227973906384918,
            3650.91
          ],
          [
            -74.28425038825928,
            -13.227980943929055,
            3651.0
          ],
          [
            -74.28425098654826,
            -13.227996907294074,
            3651.15
          ],
          [
            -74.28425409441397,
            -13.228020647882497,
            3651.41
          ],
          [
            -74.28426250568995,
            -13.228051223396573,
            3651.72
          ],
          [
            -74.28427398999582,
            -13.228090656244051,
            3652.12
          ],
          [
            -74.28428619350207,
            -13.22814076523803,
            3652.53
          ],
          [
            -74.28430172257818,
            -13.228199054759543,
            3652.92
          ],
          [
            -74.28432092736304,
            -13.22826471072214,
            3653.3
          ],
          [
            -74.2843415218443,
            -13.228337614913551,
            3653.56
          ],
          [
            -74.28436321110793,
            -13.228417125351829,
            3653.77
          ],
          [
            -74.2843868512188,
            -13.228502585191222,
            3653.91
          ],
          [
            -74.28441143496084,
            -13.228593765172391,
            3654.04
          ],
          [
            -74.28443728006599,
            -13.228690010950904,
            3654.22
          ],
          [
            -74.28446495714817,
            -13.228790598280181,
            3654.35
          ],
          [
            -74.28449388286619,
            -13.228894531119169,
            3654.53
          ],
          [
            -74.28452346959223,
            -13.229001636130905,
            3654.7
          ],
          [
            -74.28455249853918,
            -13.229111098028447,
            3654.97
          ],
          [
            -74.28458155860537,
            -13.229222846978281,
            3655.22
          ],
          [
            -74.28460988665337,
            -13.229336660771963,
            3655.57
          ],
          [
            -74.28463876820697,
            -13.229456217570183,
            3656.19
          ],
          [
            -74.28467081184263,
            -13.229575243077266,
            3656.85
          ],
          [
            -74.28470469552757,
            -13.229693724473913,
            3657.52
          ],
          [
            -74.28473954284797,
            -13.229811443579141,
            3658.4
          ],
          [
            -74.284773722451,
            -13.229928863589091,
            3659.29
          ],
          [
            -74.28480814759986,
            -13.230046247719162,
            3660.06
          ],
          [
            -74.28483993507027,
            -13.230163509056986,
            3661.13
          ],
          [
            -74.28487251174215,
            -13.230280675226428,
            3661.93
          ],
          [
            -74.28490214547423,
            -13.230397500318018,
            3662.71
          ],
          [
            -74.2849307614683,
            -13.230515300175627,
            3663.48
          ],
          [
            -74.28496182054405,
            -13.23063191045931,
            3664.26
          ],
          [
            -74.2849937705836,
            -13.230746706978774,
            3665.22
          ],
          [
            -74.2850246394433,
            -13.23086065786992,
            3666.21
          ],
          [
            -74.28505757995303,
            -13.23097319420035,
            3667.28
          ],
          [
            -74.28509871159926,
            -13.23108176797266,
            3668.43
          ],
          [
            -74.2851498651835,
            -13.231186230042368,
            3669.31
          ],
          [
            -74.2852115909198,
            -13.231283716831818,
            3670.19
          ],
          [
            -74.28528476175585,
            -13.231374648309881,
            3671.22
          ],
          [
            -74.28537510932588,
            -13.231452305793676,
            3672.15
          ],
          [
            -74.2854758227093,
            -13.231519358707102,
            3673.17
          ],
          [
            -74.28558649432858,
            -13.231573203114136,
            3674.37
          ],
          [
            -74.28570441768684,
            -13.231617605793113,
            3675.43
          ],
          [
            -74.28582863426132,
            -13.231656639788643,
            3676.57
          ],
          [
            -74.28595584329754,
            -13.231693095319159,
            3677.69
          ],
          [
            -74.28608645605745,
            -13.23172734475348,
            3678.63
          ],
          [
            -74.28621793180153,
            -13.23176148222791,
            3679.42
          ],
          [
            -74.28634958895228,
            -13.231796198149548,
            3680.28
          ],
          [
            -74.28647981585395,
            -13.231832252926624,
            3681.05
          ],
          [
            -74.2866087279269,
            -13.231868599660578,
            3681.83
          ],
          [
            -74.28673608157843,
            -13.231905288677444,
            3682.54
          ],
          [
            -74.28686076441234,
            -13.231942905554256,
            3683.38
          ],
          [
            -74.28698357800137,
            -13.23198142717164,
            3684.19
          ],
          [
            -74.28710467408018,
            -13.232021165552311,
            3685.07
          ],
          [
            -74.2872237713778,
            -13.232061745990153,
            3685.93
          ],
          [
            -74.28734169078785,
            -13.232102043329258,
            3686.86
          ],
          [
            -74.28745998757596,
            -13.232141974542307,
            3687.78
          ],
          [
            -74.28758065262777,
            -13.232174761684124,
            3688.59
          ],
          [
            -74.2877029110294,
            -13.232199113706388,
            3689.41
          ],
          [
            -74.28783110392838,
            -13.232212021968806,
            3690.54
          ],
          [
            -74.28796263050528,
            -13.232214163999432,
            3691.69
          ],
          [
            -74.2880961048653,
            -13.232203092939757,
            3692.6
          ],
          [
            -74.28823034629174,
            -13.232184032290455,
            3693.17
          ],
          [
            -74.28836621549387,
            -13.232157931880845,
            3693.4
          ],
          [
            -74.28850222789748,
            -13.232125882359847,
            3693.83
          ],
          [
            -74.28864051455417,
            -13.232088090769668,
            3694.31
          ],
          [
            -74.28877951597447,
            -13.232047103583765,
            3694.89
          ],
          [
            -74.28891871609531,
            -13.23200522939703,
            3695.39
          ],
          [
            -74.28905855319653,
            -13.23196253196068,
            3695.98
          ],
          [
            -74.28919661879446,
            -13.231920831173658,
            3696.54
          ],
          [
            -74.28933644023294,
            -13.231879308909038,
            3697.32
          ],
          [
            -74.28947782598397,
            -13.231838736702858,
            3698.14
          ],
          [
            -74.28961872765862,
            -13.231800001679003,
            3699.16
          ],
          [
            -74.28976059848327,
            -13.231762334852261,
            3699.87
          ],
          [
            -74.28990324095932,
            -13.231724661778719,
            3700.74
          ],
          [
            -74.2900443338601,
            -13.23168784235891,
            3701.51
          ],
          [
            -74.29018422773284,
            -13.231654090010506,
            3701.86
          ],
          [
            -74.29032058659679,
            -13.231621902054323,
            3702.34
          ],
          [
            -74.29045397637516,
            -13.231592368637545,
            3703.37
          ],
          [
            -74.29058590819632,
            -13.231567457343326,
            3703.95
          ],
          [
            -74.29071633523151,
            -13.231549514666614,
            3704.19
          ],
          [
            -74.29084931349728,
            -13.231537911483247,
            3704.82
          ],
          [
            -74.29098406613836,
            -13.231537615269904,
            3705.36
          ],
          [
            -74.29111910059022,
            -13.231552630042172,
            3705.9
          ],
          [
            -74.29125352240115,
            -13.231582037566167,
            3706.3
          ],
          [
            -74.29138648710722,
            -13.231622252643893,
            3706.87
          ],
          [
            -74.29151838109425,
            -13.231672408523725,
            3707.34
          ],
          [
            -74.29165160013842,
            -13.231728772248111,
            3707.76
          ],
          [
            -74.29178529582296,
            -13.23178858032739,
            3708.32
          ],
          [
            -74.29192082051574,
            -13.231852172999636,
            3709.14
          ],
          [
            -74.29205743453302,
            -13.23191828951972,
            3709.7
          ],
          [
            -74.29219583427843,
            -13.231984115619927,
            3710.6
          ],
          [
            -74.29233513016123,
            -13.23204985177488,
            3711.55
          ],
          [
            -74.29247614772564,
            -13.232115624399569,
            3712.62
          ],
          [
            -74.29261902143601,
            -13.232179851350349,
            3713.56
          ],
          [
            -74.29276221560377,
            -13.232242524500531,
            3714.51
          ],
          [
            -74.29290511153097,
            -13.232303135013765,
            3715.32
          ],
          [
            -74.2930453481384,
            -13.232362524195807,
            3716.13
          ],
          [
            -74.29318167624027,
            -13.232420009830184,
            3716.83
          ],
          [
            -74.29331184702843,
            -13.232478145916343,
            3717.44
          ],
          [
            -74.29343040137356,
            -13.2325406708347,
            3718.26
          ],
          [
            -74.29353316646908,
            -13.232611769194161,
            3719.24
          ],
          [
            -74.29361980129816,
            -13.232691960338167,
            3720.35
          ],
          [
            -74.29368502025015,
            -13.23278388235802,
            3721.44
          ],
          [
            -74.29372376342661,
            -13.232886460865389,
            3722.15
          ],
          [
            -74.29374291823106,
            -13.232995028888961,
            3722.71
          ],
          [
            -74.29374305350609,
            -13.23310087648693,
            3723.18
          ],
          [
            -74.29373068196294,
            -13.23319999891949,
            3723.83
          ],
          [
            -74.29370914477758,
            -13.233288944320513,
            3724.04
          ],
          [
            -74.29368211949983,
            -13.233360706818779,
            3724.22
          ],
          [
            -74.29365333591547,
            -13.233413914638602,
            3724.36
          ],
          [
            -74.29362317132966,
            -13.233454797213156,
            3724.5
          ],
          [
            -74.29359284004485,
            -13.233490092126278,
            3724.5
          ],
          [
            -74.29356414823313,
            -13.233522023579948,
            3724.68
          ],
          [
            -74.29353978426563,
            -13.233553421525547,
            3724.84
          ],
          [
            -74.2935229937216,
            -13.233585223469102,
            3725.01
          ],
          [
            -74.29351568030965,
            -13.233618092181077,
            3725.3
          ],
          [
            -74.29351985353523,
            -13.233652335744573,
            3725.65
          ],
          [
            -74.29353572100648,
            -13.233687447165767,
            3726.27
          ],
          [
            -74.29356339164596,
            -13.23372205017038,
            3727.15
          ],
          [
            -74.29360327524972,
            -13.23375730576784,
            3728.11
          ],
          [
            -74.29365512543991,
            -13.233791518826012,
            3729.02
          ],
          [
            -74.29371838086271,
            -13.23382394671155,
            3729.99
          ],
          [
            -74.29379293167204,
            -13.233854071784808,
            3730.68
          ],
          [
            -74.29387595689566,
            -13.23388369392822,
            3731.35
          ],
          [
            -74.29396756536137,
            -13.233913356803827,
            3731.98
          ],
          [
            -74.29406470404867,
            -13.233942043638127,
            3732.72
          ],
          [
            -74.29416561476593,
            -13.233971417072567,
            3733.6
          ],
          [
            -74.29426918331357,
            -13.234000645233008,
            3734.57
          ],
          [
            -74.29437555323781,
            -13.234033495774764,
            3735.5
          ],
          [
            -74.29448075829893,
            -13.234072380610005,
            3736.36
          ],
          [
            -74.29458256976484,
            -13.23411918008361,
            3737.45
          ],
          [
            -74.29467324058659,
            -13.234180151662448,
            3738.29
          ],
          [
            -74.29475096299095,
            -13.234254857928727,
            3739.28
          ],
          [
            -74.2948139737394,
            -13.234344118122225,
            3740.1
          ],
          [
            -74.29486590080033,
            -13.23444252326991,
            3740.77
          ],
          [
            -74.29490898413364,
            -13.234548259007166,
            3741.27
          ],
          [
            -74.29494447099866,
            -13.234660148485249,
            3741.84
          ],
          [
            -74.29497506135084,
            -13.23477734896239,
            3742.02
          ],
          [
            -74.29500337037868,
            -13.234898560844462,
            3742.19
          ],
          [
            -74.295031175048,
            -13.23502144067028,
            3742.44
          ],
          [
            -74.29505876239627,
            -13.23514585038776,
            3742.91
          ],
          [
            -74.29508558679167,
            -13.235273459160402,
            3743.23
          ],
          [
            -74.29511322885416,
            -13.235400382638733,
            3743.55
          ],
          [
            -74.29514208357578,
            -13.235528827643597,
            3743.73
          ],
          [
            -74.2951746567725,
            -13.235657495146308,
            3744.06
          ],
          [
            -74.29521386759332,
            -13.235782975037905,
            3744.48
          ],
          [
            -74.29526045605023,
            -13.235905966680802,
            3744.84
          ],
          [
            -74.29531469740304,
            -13.236025990465912,
            3745.25
          ],
          [
            -74.29537700574201,
            -13.236143118746103,
            3745.66
          ],
          [
            -74.29545088462595,
            -13.236256846908791,
            3746.13
          ],
          [
            -74.29553677234355,
            -13.236365735442142,
            3746.57
          ],
          [
            -74.29563040703488,
            -13.236473853376344,
            3746.77
          ],
          [
            -74.29572524236418,
            -13.236583941820045,
            3747.19
          ],
          [
            -74.29581814062023,
            -13.236696073327417,
            3747.28
          ],
          [
            -74.29590651335326,
            -13.23681150391789,
            3747.17
          ],
          [
            -74.29598880716054,
            -13.236929714766106,
            3747.16
          ],
          [
            -74.29606085031281,
            -13.237052248481728,
            3747.5
          ],
          [
            -74.29612423588588,
            -13.237174750256882,
            3747.89
          ],
          [
            -74.2961784739236,
            -13.237296144785429,
            3748.4
          ],
          [
            -74.29622227601804,
            -13.237418021160977,
            3749.11
          ],
          [
            -74.29625447021422,
            -13.23754091471561,
            3749.76
          ],
          [
            -74.29627914182126,
            -13.237663270623495,
            3750.6
          ],
          [
            -74.29629888380336,
            -13.237786832338026,
            3751.39
          ],
          [
            -74.29631277048806,
            -13.237909159313935,
            3752.18
          ],
          [
            -74.2963245548077,
            -13.238028169057507,
            3752.74
          ],
          [
            -74.29634064709501,
            -13.238139876818234,
            3753.32
          ],
          [
            -74.296370578144,
            -13.238245146988836,
            3753.93
          ],
          [
            -74.29641541804578,
            -13.23833845280232,
            3754.61
          ],
          [
            -74.29648134444123,
            -13.238416930957994,
            3755.36
          ],
          [
            -74.29656540745161,
            -13.238481552649096,
            3756.09
          ],
          [
            -74.296668622146,
            -13.23853079685774,
            3756.67
          ],
          [
            -74.29678323653675,
            -13.238570076539036,
            3757.2
          ],
          [
            -74.29690813115779,
            -13.238604110553085,
            3757.57
          ],
          [
            -74.29704224496476,
            -13.238633755342978,
            3757.72
          ],
          [
            -74.29718688375252,
            -13.238664272101937,
            3757.87
          ],
          [
            -74.29733643994102,
            -13.238696767053222,
            3757.84
          ],
          [
            -74.2974907449484,
            -13.238730415409375,
            3757.74
          ],
          [
            -74.29764530414971,
            -13.23877149544893,
            3757.56
          ],
          [
            -74.2977968135383,
            -13.238821429811637,
            3757.68
          ],
          [
            -74.29794181424238,
            -13.238884434287547,
            3757.88
          ],
          [
            -74.2980791198293,
            -13.238959087727787,
            3758.34
          ],
          [
            -74.2982101944071,
            -13.239041989154737,
            3759.23
          ],
          [
            -74.29833598785868,
            -13.23913240428519,
            3760.28
          ],
          [
            -74.29845739390139,
            -13.239227418854016,
            3761.33
          ],
          [
            -74.2985746590107,
            -13.23932542476709,
            3762.25
          ],
          [
            -74.29868595371337,
            -13.239427877018642,
            3763.12
          ],
          [
            -74.29879385330796,
            -13.23953341913397,
            3764.01
          ],
          [
            -74.2988987878602,
            -13.239640399734366,
            3764.92
          ],
          [
            -74.29900258026706,
            -13.239747891206363,
            3765.56
          ],
          [
            -74.29910609508242,
            -13.239854093185771,
            3766.42
          ],
          [
            -74.29920887441722,
            -13.239960232758222,
            3767.19
          ],
          [
            -74.29931018206732,
            -13.240066392705804,
            3768.0
          ],
          [
            -74.29941073332533,
            -13.240170912637778,
            3768.83
          ],
          [
            -74.29951044036609,
            -13.240273889567343,
            3769.69
          ],
          [
            -74.29960922966656,
            -13.240374271146838,
            3770.56
          ],
          [
            -74.29970769667636,
            -13.240472119830201,
            3771.32
          ],
          [
            -74.29980980140601,
            -13.240565823280235,
            3772.14
          ],
          [
            -74.29991727530704,
            -13.240652804580451,
            3773.13
          ],
          [
            -74.30003033598801,
            -13.240732090471425,
            3774.19
          ],
          [
            -74.30014981928484,
            -13.24080136724719,
            3775.13
          ],
          [
            -74.300274243267,
            -13.240859668250852,
            3776.06
          ],
          [
            -74.30040429119468,
            -13.240907732106852,
            3777.01
          ],
          [
            -74.30053903137805,
            -13.240949131473126,
            3777.93
          ],
          [
            -74.30067775822349,
            -13.24098491317491,
            3778.81
          ],
          [
            -74.30081890734137,
            -13.241017192149176,
            3779.76
          ],
          [
            -74.30096192454481,
            -13.241046585475804,
            3780.83
          ],
          [
            -74.3011057521638,
            -13.241073969042768,
            3782.0
          ],
          [
            -74.30124932342963,
            -13.241099552519065,
            3783.24
          ],
          [
            -74.30139180089489,
            -13.241123622940814,
            3784.52
          ],
          [
            -74.30153196052383,
            -13.241146261486081,
            3785.76
          ],
          [
            -74.30166889203387,
            -13.241170380687423,
            3786.93
          ],
          [
            -74.30179958930417,
            -13.241196523670272,
            3787.93
          ],
          [
            -74.30192492798624,
            -13.241224544412013,
            3788.93
          ],
          [
            -74.30204715098357,
            -13.241253162745899,
            3789.91
          ],
          [
            -74.30216871126994,
            -13.241282386679094,
            3790.8
          ],
          [
            -74.30228484445297,
            -13.241317257854456,
            3791.55
          ],
          [
            -74.30239539685485,
            -13.241362160232974,
            3792.23
          ],
          [
            -74.30249518849342,
            -13.241420986265885,
            3792.73
          ],
          [
            -74.30257892539352,
            -13.241495519600589,
            3793.05
          ],
          [
            -74.30264620996837,
            -13.24158511269703,
            3793.36
          ],
          [
            -74.30269448201634,
            -13.241687853656165,
            3793.72
          ],
          [
            -74.30271710652276,
            -13.241802333360258,
            3794.07
          ],
          [
            -74.30271366887547,
            -13.241924791652572,
            3794.38
          ],
          [
            -74.30269014918268,
            -13.242053913560675,
            3794.74
          ],
          [
            -74.30264953333958,
            -13.242188352472326,
            3795.1
          ],
          [
            -74.3025960563777,
            -13.242326627585022,
            3795.48
          ],
          [
            -74.30253836850979,
            -13.242467182999773,
            3796.01
          ],
          [
            -74.3024798133199,
            -13.242612130899643,
            3796.53
          ],
          [
            -74.30242547202276,
            -13.242759434604105,
            3797.14
          ],
          [
            -74.30237997378188,
            -13.24290753984989,
            3797.76
          ],
          [
            -74.30234461338463,
            -13.24305689522976,
            3798.46
          ],
          [
            -74.30231773944692,
            -13.243207000354694,
            3799.17
          ],
          [
            -74.3022991714047,
            -13.243357895328838,
            3799.96
          ],
          [
            -74.30228802872197,
            -13.243508781624723,
            3800.75
          ],
          [
            -74.30228388860758,
            -13.24365932043551,
            3801.56
          ],
          [
            -74.30228385694049,
            -13.243808812030807,
            3802.4
          ],
          [
            -74.30228656421887,
            -13.243957664529425,
            3803.29
          ],
          [
            -74.30229186589025,
            -13.244105473911954,
            3804.08
          ],
          [
            -74.30229960827022,
            -13.244252458892287,
            3804.89
          ],
          [
            -74.30231022177827,
            -13.244398552831381,
            3805.67
          ],
          [
            -74.30232427516174,
            -13.244542719880739,
            3806.44
          ],
          [
            -74.30234358156417,
            -13.244684723885184,
            3807.22
          ],
          [
            -74.30236818214536,
            -13.244823637711313,
            3807.98
          ],
          [
            -74.30239640627528,
            -13.244960364861646,
            3808.69
          ],
          [
            -74.30242932209259,
            -13.245094887588287,
            3809.34
          ],
          [
            -74.30246732293843,
            -13.245226621630486,
            3810.0
          ],
          [
            -74.30251008431557,
            -13.245356142856359,
            3810.65
          ],
          [
            -74.30255937982034,
            -13.245483015777394,
            3811.31
          ],
          [
            -74.30261366995309,
            -13.245607723391899,
            3812.03
          ],
          [
            -74.30267062561042,
            -13.245731466525452,
            3812.75
          ],
          [
            -74.30272962960201,
            -13.245853674164504,
            3813.36
          ],
          [
            -74.3027890282878,
            -13.24597507669582,
            3814.01
          ],
          [
            -74.30284900663433,
            -13.246095454328284,
            3814.63
          ],
          [
            -74.30290919605362,
            -13.24621534646244,
            3815.26
          ],
          [
            -74.30296877863147,
            -13.24633419681671,
            3815.95
          ],
          [
            -74.3030267832021,
            -13.246451412509048,
            3816.62
          ],
          [
            -74.30308268185811,
            -13.246566493051526,
            3817.31
          ],
          [
            -74.30313668890267,
            -13.246679243168389,
            3817.97
          ],
          [
            -74.30319214055459,
            -13.24678855232118,
            3818.61
          ],
          [
            -74.303252180695,
            -13.246892706681567,
            3819.31
          ],
          [
            -74.30332080412353,
            -13.246989150525675,
            3820.1
          ],
          [
            -74.3034008661946,
            -13.247074092528432,
            3820.79
          ],
          [
            -74.30349215181981,
            -13.24714481508978,
            3821.51
          ],
          [
            -74.30359553533161,
            -13.247198672928537,
            3822.27
          ],
          [
            -74.30370854512596,
            -13.247236687791498,
            3823.17
          ],
          [
            -74.30383021316749,
            -13.24726085746454,
            3824.07
          ],
          [
            -74.30396039728774,
            -13.247272463312665,
            3824.95
          ],
          [
            -74.30409661457219,
            -13.247274655911363,
            3825.88
          ],
          [
            -74.30423722955466,
            -13.247270373229439,
            3826.76
          ],
          [
            -74.30438097032221,
            -13.247261865202589,
            3827.62
          ],
          [
            -74.30452666682203,
            -13.24725139207539,
            3828.55
          ],
          [
            -74.30467275387447,
            -13.247239602600109,
            3829.53
          ],
          [
            -74.30481640552044,
            -13.247228411549626,
            3830.39
          ],
          [
            -74.30495676972494,
            -13.24721484607491,
            3831.11
          ],
          [
            -74.30509334099817,
            -13.247193425286103,
            3831.73
          ],
          [
            -74.30522241374487,
            -13.247158253729758,
            3832.2
          ],
          [
            -74.30534063069905,
            -13.247103490785843,
            3832.57
          ],
          [
            -74.30544096184995,
            -13.247025814573748,
            3832.89
          ],
          [
            -74.30551791496555,
            -13.246926086699693,
            3833.23
          ],
          [
            -74.30557399944398,
            -13.246807055170507,
            3833.51
          ],
          [
            -74.30561459816765,
            -13.246672335403554,
            3833.74
          ],
          [
            -74.30564177420591,
            -13.246525063245581,
            3834.04
          ],
          [
            -74.30565858705688,
            -13.246368153166491,
            3834.34
          ],
          [
            -74.30566973025182,
            -13.246205176869347,
            3834.97
          ],
          [
            -74.30567561291228,
            -13.246039715289164,
            3835.71
          ],
          [
            -74.30567821777453,
            -13.245871507809113,
            3836.65
          ],
          [
            -74.30567907986232,
            -13.245701650581873,
            3837.55
          ],
          [
            -74.30568037804173,
            -13.245531610033671,
            3838.4
          ],
          [
            -74.30568271855633,
            -13.24536198797241,
            3839.26
          ],
          [
            -74.30568650797434,
            -13.245193532993865,
            3840.06
          ],
          [
            -74.30569455215648,
            -13.245027084196888,
            3840.65
          ],
          [
            -74.30571020189699,
            -13.244863785894868,
            3841.22
          ],
          [
            -74.3057358283933,
            -13.244705379747595,
            3841.87
          ],
          [
            -74.30577732533709,
            -13.244553941137502,
            3842.37
          ],
          [
            -74.3058342078468,
            -13.244413861808304,
            3843.0
          ],
          [
            -74.30590748073146,
            -13.244285562312696,
            3843.67
          ],
          [
            -74.30599817710274,
            -13.244172456374129,
            3844.26
          ],
          [
            -74.30610579813222,
            -13.24407230594508,
            3844.85
          ],
          [
            -74.30622684895243,
            -13.243983660399527,
            3845.49
          ],
          [
            -74.30635939174925,
            -13.24390806721399,
            3845.97
          ],
          [
            -74.30649999451182,
            -13.243843387378703,
            3846.54
          ],
          [
            -74.30664585698202,
            -13.24378899719028,
            3846.98
          ],
          [
            -74.30679578993659,
            -13.243747967931146,
            3847.38
          ],
          [
            -74.30694837027077,
            -13.243723397619359,
            3847.82
          ],
          [
            -74.30710295560498,
            -13.243718560246297,
            3848.39
          ],
          [
            -74.30725838217148,
            -13.243734770048949,
            3849.12
          ],
          [
            -74.30740760208829,
            -13.24377637372216,
            3849.84
          ],
          [
            -74.3075481858114,
            -13.243843414714206,
            3850.69
          ],
          [
            -74.30768119583934,
            -13.243933953615107,
            3851.54
          ],
          [
            -74.30780668718984,
            -13.244044546535719,
            3852.44
          ],
          [
            -74.30792320214779,
            -13.244170524493057,
            3853.35
          ],
          [
            -74.30803337624207,
            -13.244307491919281,
            3854.34
          ],
          [
            -74.30813668458089,
            -13.244452563335283,
            3855.4
          ],
          [
            -74.30823514859311,
            -13.244601719253208,
            3856.46
          ],
          [
            -74.30833041761481,
            -13.244752717277937,
            3857.54
          ],
          [
            -74.30842612154038,
            -13.244903155940818,
            3858.62
          ],
          [
            -74.30852169884166,
            -13.245052646043979,
            3859.58
          ],
          [
            -74.30861782680495,
            -13.245200258181116,
            3860.57
          ],
          [
            -74.30871628624749,
            -13.245344789724594,
            3861.44
          ],
          [
            -74.30881986498463,
            -13.24548346451906,
            3862.32
          ],
          [
            -74.30893106636324,
            -13.24561233858077,
            3863.14
          ],
          [
            -74.3090538905682,
            -13.245727189378425,
            3863.75
          ],
          [
            -74.30918639087136,
            -13.245824867884227,
            3864.33
          ],
          [
            -74.30932715135661,
            -13.245905252675994,
            3864.75
          ],
          [
            -74.30947346919451,
            -13.245969351316914,
            3865.13
          ],
          [
            -74.30962378835683,
            -13.246020101401413,
            3865.54
          ],
          [
            -74.30977743183183,
            -13.246060813321701,
            3866.04
          ],
          [
            -74.30993084108384,
            -13.246098838850386,
            3866.64
          ],
          [
            -74.31007980976503,
            -13.246140662204024,
            3867.25
          ],
          [
            -74.31022299688233,
            -13.246186775895646,
            3867.9
          ],
          [
            -74.31035799106446,
            -13.246240500101912,
            3868.58
          ],
          [
            -74.31048479138046,
            -13.246303166853627,
            3869.4
          ],
          [
            -74.31060439017428,
            -13.24637364254887,
            3870.31
          ],
          [
            -74.31071894455012,
            -13.24645128572325,
            3871.19
          ],
          [
            -74.31083020177405,
            -13.246534801925899,
            3872.0
          ],
          [
            -74.31093992553734,
            -13.24662293453875,
            3872.83
          ],
          [
            -74.31104845153934,
            -13.246715451834879,
            3873.54
          ],
          [
            -74.31115583526481,
            -13.246811638998492,
            3874.15
          ],
          [
            -74.311262081642,
            -13.24691029242216,
            3874.78
          ],
          [
            -74.31136945053323,
            -13.247010555403769,
            3875.43
          ],
          [
            -74.31147656535425,
            -13.24711245259776,
            3876.02
          ],
          [
            -74.3115840714134,
            -13.247215866808348,
            3876.65
          ],
          [
            -74.31169278386588,
            -13.247320423405268,
            3877.24
          ],
          [
            -74.31180202977268,
            -13.247425257122254,
            3877.86
          ],
          [
            -74.31191202162884,
            -13.247531151336931,
            3878.58
          ],
          [
            -74.31202377889925,
            -13.24763770281723,
            3879.31
          ],
          [
            -74.31213743289548,
            -13.247744091730215,
            3880.09
          ],
          [
            -74.31225432497114,
            -13.2478492664986,
            3880.7
          ],
          [
            -74.31237361731411,
            -13.24795429096401,
            3881.37
          ],
          [
            -74.3124951877273,
            -13.248059568872995,
            3882.07
          ],
          [
            -74.3126172583165,
            -13.24816562776462,
            3882.79
          ],
          [
            -74.31273863073456,
            -13.248271526614728,
            3883.46
          ],
          [
            -74.31285985840285,
            -13.248374874966713,
            3884.09
          ],
          [
            -74.3129818989879,
            -13.248476749950495,
            3884.8
          ],
          [
            -74.31310212786349,
            -13.24857812570806,
            3885.45
          ],
          [
            -74.31322208682384,
            -13.248677811404711,
            3886.08
          ],
          [
            -74.31334247795,
            -13.248774213758518,
            3886.6
          ],
          [
            -74.31346582797028,
            -13.248862721352307,
            3887.11
          ],
          [
            -74.31359600887535,
            -13.248936949448671,
            3887.84
          ],
          [
            -74.31373068546296,
            -13.248992664005238,
            3888.59
          ],
          [
            -74.31386969504857,
            -13.249025464236718,
            3889.3
          ],
          [
            -74.3140129741867,
            -13.24903589535277,
            3889.89
          ],
          [
            -74.31415865045544,
            -13.249028613832857,
            3890.64
          ],
          [
            -74.31430632717728,
            -13.249007858123907,
            3891.49
          ],
          [
            -74.3144554527367,
            -13.24897512492495,
            3892.42
          ],
          [
            -74.31460470635089,
            -13.248934440497706,
            3893.47
          ],
          [
            -74.31475318606664,
            -13.24889038005293,
            3894.55
          ],
          [
            -74.31490144966565,
            -13.248844862250511,
            3895.72
          ],
          [
            -74.31505053916453,
            -13.248799446817575,
            3896.75
          ],
          [
            -74.31520060742396,
            -13.248755304623982,
            3897.76
          ],
          [
            -74.31535143566217,
            -13.248713066076151,
            3898.72
          ],
          [
            -74.31550197348581,
            -13.24867238561805,
            3899.65
          ],
          [
            -74.31565072470033,
            -13.248633546247545,
            3900.41
          ],
          [
            -74.31579704451474,
            -13.24859926916937,
            3901.0
          ],
          [
            -74.31594025018454,
            -13.248573927174288,
            3901.33
          ],
          [
            -74.31608136899881,
            -13.248560529034107,
            3901.44
          ],
          [
            -74.3162204108812,
            -13.2485634195987,
            3901.42
          ],
          [
            -74.31635398683179,
            -13.248586337184872,
            3901.14
          ],
          [
            -74.31647935169079,
            -13.248631516531812,
            3900.68
          ],
          [
            -74.31659383901638,
            -13.248698707915954,
            3900.09
          ],
          [
            -74.31669577277394,
            -13.248787307436936,
            3899.41
          ],
          [
            -74.3167773292272,
            -13.248897113346734,
            3898.59
          ],
          [
            -74.31683956252033,
            -13.249024654196724,
            3897.76
          ],
          [
            -74.31687892586906,
            -13.249168105362964,
            3896.84
          ],
          [
            -74.31689483487335,
            -13.249325009890132,
            3895.91
          ],
          [
            -74.31688775685748,
            -13.249493490708609,
            3894.94
          ],
          [
            -74.31686254111465,
            -13.249672487619215,
            3893.91
          ],
          [
            -74.31682162008563,
            -13.249858579307094,
            3892.93
          ],
          [
            -74.31676953439779,
            -13.250049862341461,
            3892.16
          ],
          [
            -74.31670940135791,
            -13.250244297007438,
            3891.38
          ],
          [
            -74.31664513256402,
            -13.250440543479309,
            3890.63
          ],
          [
            -74.31657814610702,
            -13.250637446232716,
            3889.82
          ],
          [
            -74.31651135013522,
            -13.250833225851679,
            3889.01
          ],
          [
            -74.31644492809991,
            -13.251025584047076,
            3888.14
          ],
          [
            -74.3163815533943,
            -13.25121337390274,
            3887.5
          ],
          [
            -74.3163222808378,
            -13.251393562073318,
            3886.91
          ],
          [
            -74.31626611629932,
            -13.25156487019125,
            3886.03
          ],
          [
            -74.31621945236746,
            -13.251726274537273,
            3885.1
          ],
          [
            -74.31618901919096,
            -13.251879425509197,
            3884.27
          ],
          [
            -74.31618210546834,
            -13.252021904912239,
            3883.48
          ],
          [
            -74.31620673908526,
            -13.252151179347623,
            3882.81
          ],
          [
            -74.31626620690037,
            -13.252262074975283,
            3882.3
          ],
          [
            -74.31635827000767,
            -13.252353302348485,
            3881.85
          ],
          [
            -74.31647809360928,
            -13.252426685165027,
            3881.36
          ],
          [
            -74.31662015335309,
            -13.252486588141535,
            3880.79
          ],
          [
            -74.316780684987,
            -13.25253859363819,
            3880.13
          ],
          [
            -74.31695282547227,
            -13.252587444836276,
            3879.52
          ],
          [
            -74.31713037027019,
            -13.252639035794857,
            3878.95
          ],
          [
            -74.31730702375216,
            -13.252698474907165,
            3878.44
          ],
          [
            -74.31747613563836,
            -13.25277030860461,
            3877.92
          ],
          [
            -74.31763534953123,
            -13.252858636159296,
            3877.44
          ],
          [
            -74.31778279910068,
            -13.252962408620139,
            3877.1
          ],
          [
            -74.31791769505588,
            -13.25307985783412,
            3876.83
          ],
          [
            -74.31804027709872,
            -13.253209109998114,
            3876.43
          ],
          [
            -74.3181526538049,
            -13.25334612009739,
            3876.14
          ],
          [
            -74.31825596568225,
            -13.253489487075347,
            3875.92
          ],
          [
            -74.31835147504778,
            -13.25363812458373,
            3875.63
          ],
          [
            -74.31844378732801,
            -13.253791663361742,
            3875.43
          ],
          [
            -74.31853388662026,
            -13.2539480197203,
            3875.2
          ],
          [
            -74.31862533838772,
            -13.254104999944094,
            3875.02
          ],
          [
            -74.31871950069926,
            -13.254262074630532,
            3874.77
          ],
          [
            -74.31881635376688,
            -13.254417358606501,
            3874.45
          ],
          [
            -74.3189158848259,
            -13.254569466763312,
            3874.14
          ],
          [
            -74.31902058293443,
            -13.2547161967334,
            3873.78
          ],
          [
            -74.31913453583822,
            -13.25485493586847,
            3873.49
          ],
          [
            -74.31925825315821,
            -13.254981457221179,
            3873.2
          ],
          [
            -74.31939341405844,
            -13.25509275749086,
            3872.81
          ],
          [
            -74.3195371739465,
            -13.255190824453159,
            3872.49
          ],
          [
            -74.31968492668021,
            -13.255281716378127,
            3871.94
          ],
          [
            -74.31983060807717,
            -13.255372567461672,
            3871.38
          ],
          [
            -74.31997064617532,
            -13.255467718730584,
            3870.95
          ],
          [
            -74.32010416882177,
            -13.255568521268861,
            3870.56
          ],
          [
            -74.32023122564608,
            -13.255675436869623,
            3870.19
          ],
          [
            -74.32035311968001,
            -13.255785922372645,
            3869.87
          ],
          [
            -74.32047009780234,
            -13.25589959325506,
            3869.45
          ],
          [
            -74.32058373297203,
            -13.256015317388835,
            3869.19
          ],
          [
            -74.32069232991398,
            -13.256133474919748,
            3868.83
          ],
          [
            -74.320795715067,
            -13.256254850952494,
            3868.58
          ],
          [
            -74.32088651857387,
            -13.256381080084823,
            3868.38
          ],
          [
            -74.32096037764431,
            -13.256513899877717,
            3868.19
          ],
          [
            -74.32101181595301,
            -13.256653772112697,
            3868.11
          ],
          [
            -74.32103487873411,
            -13.256797424501114,
            3868.09
          ],
          [
            -74.32102788069587,
            -13.256942149831833,
            3868.03
          ],
          [
            -74.32098994637965,
            -13.257083916640454,
            3868.09
          ],
          [
            -74.32092189278892,
            -13.257220785327293,
            3868.18
          ],
          [
            -74.32082572660185,
            -13.257350828111958,
            3868.18
          ],
          [
            -74.32070726798463,
            -13.257472519581551,
            3868.22
          ],
          [
            -74.32057151387657,
            -13.257588107059405,
            3868.26
          ],
          [
            -74.32042427917973,
            -13.257698658441967,
            3868.37
          ],
          [
            -74.32027148594965,
            -13.2578040928755,
            3868.47
          ],
          [
            -74.32011592591459,
            -13.257906267782376,
            3868.39
          ],
          [
            -74.31996298118882,
            -13.258007551515496,
            3868.11
          ],
          [
            -74.31981948558013,
            -13.258111025470113,
            3867.78
          ],
          [
            -74.31968966951513,
            -13.258222512645613,
            3867.45
          ],
          [
            -74.31958341107628,
            -13.258344469002472,
            3867.08
          ],
          [
            -74.31950113396245,
            -13.258475170288119,
            3866.71
          ],
          [
            -74.3194355757353,
            -13.258615269029358,
            3866.49
          ],
          [
            -74.31937876014386,
            -13.258763209949441,
            3866.31
          ],
          [
            -74.31932371292231,
            -13.258917225305671,
            3866.15
          ],
          [
            -74.31926753216946,
            -13.259074664274888,
            3865.96
          ],
          [
            -74.31920768405249,
            -13.259232524918481,
            3865.85
          ],
          [
            -74.31914512965744,
            -13.25939107048222,
            3865.86
          ],
          [
            -74.31908288442463,
            -13.259552801276842,
            3865.82
          ],
          [
            -74.31902692214241,
            -13.259719009220856,
            3865.8
          ],
          [
            -74.31898089552027,
            -13.259891126411361,
            3865.82
          ],
          [
            -74.31894734079897,
            -13.260068758974423,
            3865.75
          ],
          [
            -74.3189279486704,
            -13.26025183447943,
            3865.7
          ],
          [
            -74.31892781123851,
            -13.260439817757028,
            3865.66
          ],
          [
            -74.31894715109816,
            -13.260630045894816,
            3865.78
          ],
          [
            -74.31898600692422,
            -13.260819405579223,
            3865.46
          ],
          [
            -74.31903894911672,
            -13.26100840291207,
            3865.03
          ],
          [
            -74.31910202778556,
            -13.261193521094519,
            3864.54
          ],
          [
            -74.3191691763833,
            -13.261373424472898,
            3863.93
          ],
          [
            -74.31923424755843,
            -13.26154827903525,
            3863.29
          ],
          [
            -74.3192884621925,
            -13.26171727743235,
            3862.72
          ],
          [
            -74.31932316023698,
            -13.261880653547063,
            3862.15
          ],
          [
            -74.31933586471074,
            -13.262038242842944,
            3861.72
          ],
          [
            -74.3193208571885,
            -13.262188979227004,
            3861.28
          ],
          [
            -74.31927540653687,
            -13.262330438000907,
            3860.94
          ],
          [
            -74.31920237229659,
            -13.262457898702637,
            3860.68
          ],
          [
            -74.31909966093109,
            -13.262565989466975,
            3860.63
          ],
          [
            -74.31896728011878,
            -13.262654073092811,
            3860.58
          ],
          [
            -74.31881019137127,
            -13.262721506683793,
            3860.46
          ],
          [
            -74.31863818321895,
            -13.262771314035673,
            3860.24
          ],
          [
            -74.3184584047301,
            -13.262805078470684,
            3860.01
          ],
          [
            -74.31827574971103,
            -13.262820652712074,
            3859.79
          ],
          [
            -74.31809495523221,
            -13.26281280781511,
            3859.54
          ],
          [
            -74.3179182588851,
            -13.262777152197014,
            3859.22
          ],
          [
            -74.31775203712273,
            -13.262711452479722,
            3858.81
          ],
          [
            -74.31760200023552,
            -13.262617209151442,
            3858.34
          ],
          [
            -74.31747226120122,
            -13.262496480032558,
            3857.91
          ],
          [
            -74.31736036039447,
            -13.262355883618753,
            3857.54
          ],
          [
            -74.31726426937435,
            -13.26220030615075,
            3857.18
          ],
          [
            -74.31718078449971,
            -13.262037583452168,
            3856.85
          ],
          [
            -74.31709963275156,
            -13.261875884558977,
            3856.35
          ],
          [
            -74.31701395488535,
            -13.261725120775921,
            3855.93
          ],
          [
            -74.31691881595835,
            -13.261592385483773,
            3855.59
          ],
          [
            -74.31681212065256,
            -13.261481543588818,
            3855.43
          ],
          [
            -74.31669213016552,
            -13.261392975946775,
            3855.25
          ],
          [
            -74.31655962625635,
            -13.261324035016614,
            3855.25
          ],
          [
            -74.3164143458301,
            -13.261274068305157,
            3855.47
          ],
          [
            -74.31626157437512,
            -13.261237259223149,
            3855.6
          ],
          [
            -74.31610370844196,
            -13.261211139987939,
            3855.84
          ],
          [
            -74.31594295653179,
            -13.261193993375166,
            3855.81
          ],
          [
            -74.31578060025613,
            -13.261188508948578,
            3855.83
          ],
          [
            -74.315619171288,
            -13.261201906615225,
            3855.79
          ],
          [
            -74.31546576936213,
            -13.261241233251855,
            3855.62
          ],
          [
            -74.31532886746366,
            -13.261311712403554,
            3855.4
          ],
          [
            -74.31521397588725,
            -13.26141258571033,
            3855.11
          ],
          [
            -74.31512027922099,
            -13.261539867511825,
            3854.75
          ],
          [
            -74.3150473836875,
            -13.261684630706386,
            3854.4
          ],
          [
            -74.31499306575893,
            -13.261842606967976,
            3853.9
          ],
          [
            -74.3149496830076,
            -13.262009430629217,
            3853.47
          ],
          [
            -74.31490815876437,
            -13.262179713943565,
            3853.07
          ],
          [
            -74.31485859905303,
            -13.262347524864683,
            3852.6
          ],
          [
            -74.31479572535741,
            -13.262507037826087,
            3852.17
          ],
          [
            -74.31471824500306,
            -13.262653146568027,
            3851.84
          ],
          [
            -74.3146248649894,
            -13.262785570865905,
            3851.65
          ],
          [
            -74.31451928031225,
            -13.262901613799716,
            3851.23
          ],
          [
            -74.3144047023359,
            -13.26300560409303,
            3850.98
          ],
          [
            -74.31428318897333,
            -13.263099921731706,
            3850.49
          ],
          [
            -74.31415688085617,
            -13.263185107321409,
            3850.21
          ],
          [
            -74.3140256080577,
            -13.263259321440513,
            3849.82
          ],
          [
            -74.31388936757827,
            -13.263320359668445,
            3849.32
          ],
          [
            -74.31374761212203,
            -13.263364463671993,
            3848.8
          ],
          [
            -74.3136015932158,
            -13.263392331788891,
            3848.34
          ],
          [
            -74.31345396275162,
            -13.26339941109242,
            3847.8
          ],
          [
            -74.31330702198441,
            -13.263383791790336,
            3847.35
          ],
          [
            -74.31316358830466,
            -13.26334394365083,
            3846.9
          ],
          [
            -74.31302838707195,
            -13.263278987781412,
            3846.49
          ],
          [
            -74.31290543092969,
            -13.263189911961248,
            3846.21
          ],
          [
            -74.31279788587506,
            -13.263076570930645,
            3845.92
          ],
          [
            -74.31271030103892,
            -13.262940234104047,
            3845.47
          ],
          [
            -74.31264561422161,
            -13.262784788711288,
            3845.06
          ],
          [
            -74.3126002588743,
            -13.262617399601544,
            3844.7
          ],
          [
            -74.31257031063866,
            -13.26244112003567,
            3844.39
          ],
          [
            -74.31255279359,
            -13.26226020113842,
            3844.23
          ],
          [
            -74.31254561251578,
            -13.262077636197116,
            3844.13
          ],
          [
            -74.31254295540171,
            -13.261897010649108,
            3844.05
          ],
          [
            -74.31253519117219,
            -13.261721899465611,
            3844.11
          ],
          [
            -74.31251753232908,
            -13.261555269459276,
            3844.22
          ],
          [
            -74.31248416258654,
            -13.261402697910396,
            3844.29
          ],
          [
            -74.31243230389732,
            -13.261268121628577,
            3844.43
          ],
          [
            -74.31235941934722,
            -13.261156910549893,
            3844.72
          ],
          [
            -74.31226613143232,
            -13.261073620336576,
            3845.07
          ],
          [
            -74.31215230649138,
            -13.261021150769073,
            3845.44
          ],
          [
            -74.31202293612316,
            -13.261003001562267,
            3845.83
          ],
          [
            -74.31187959828429,
            -13.26101518506376,
            3846.03
          ],
          [
            -74.31172738317608,
            -13.261050264222623,
            3846.07
          ],
          [
            -74.3115694744422,
            -13.261103030643632,
            3845.88
          ],
          [
            -74.3114071202181,
            -13.261169608037472,
            3845.53
          ],
          [
            -74.31124084570072,
            -13.261246327324185,
            3845.3
          ],
          [
            -74.31107189279489,
            -13.261330096957039,
            3845.02
          ],
          [
            -74.31090112254354,
            -13.261422069963649,
            3844.67
          ],
          [
            -74.31072977478374,
            -13.261519968579355,
            3844.24
          ],
          [
            -74.31056119298273,
            -13.26162357613992,
            3843.79
          ],
          [
            -74.31039747451977,
            -13.261732034733948,
            3843.41
          ],
          [
            -74.31023950172447,
            -13.26184589970551,
            3843.18
          ],
          [
            -74.31008758013563,
            -13.261965610841207,
            3842.87
          ],
          [
            -74.30994268172299,
            -13.262089812575558,
            3842.66
          ],
          [
            -74.30980619931702,
            -13.262220068699543,
            3842.43
          ],
          [
            -74.30967788632911,
            -13.262355502766209,
            3842.21
          ],
          [
            -74.309558546331,
            -13.26249587782707,
            3841.99
          ],
          [
            -74.30944706623748,
            -13.262639134391158,
            3841.68
          ],
          [
            -74.30934383541221,
            -13.262786763950693,
            3841.43
          ],
          [
            -74.30924916668134,
            -13.262939089635408,
            3841.17
          ],
          [
            -74.3091635359297,
            -13.263096661755284,
            3841.0
          ],
          [
            -74.30909222535796,
            -13.263258036940034,
            3840.93
          ],
          [
            -74.30903589254714,
            -13.263422816385637,
            3840.79
          ],
          [
            -74.30899710964702,
            -13.263591018850748,
            3840.8
          ],
          [
            -74.30897873865256,
            -13.263762099247728,
            3840.99
          ],
          [
            -74.30898198179571,
            -13.263935093852322,
            3841.15
          ],
          [
            -74.30900883517242,
            -13.26410938506673,
            3841.35
          ],
          [
            -74.30905705212476,
            -13.26428272984229,
            3841.39
          ],
          [
            -74.30912373749432,
            -13.264453560079174,
            3841.36
          ],
          [
            -74.30920711074128,
            -13.264620259613388,
            3841.24
          ],
          [
            -74.30930319187874,
            -13.264782382263261,
            3841.09
          ],
          [
            -74.30940544510018,
            -13.26493910386859,
            3840.8
          ],
          [
            -74.30950830923771,
            -13.265089191266986,
            3840.43
          ],
          [
            -74.30960134200907,
            -13.265233388988399,
            3840.08
          ],
          [
            -74.30967782807605,
            -13.265370787013248,
            3839.7
          ],
          [
            -74.30972698220285,
            -13.265501001239876,
            3839.19
          ],
          [
            -74.30974270566884,
            -13.265621684179882,
            3838.61
          ],
          [
            -74.30972279277057,
            -13.265727291424355,
            3837.96
          ],
          [
            -74.3096668190013,
            -13.26581351054179,
            3837.4
          ],
          [
            -74.30957559885496,
            -13.26587806863685,
            3836.81
          ],
          [
            -74.30945574990321,
            -13.265920848233623,
            3836.08
          ],
          [
            -74.30931557487868,
            -13.265947317975142,
            3835.22
          ],
          [
            -74.30916308655118,
            -13.265969476910213,
            3834.23
          ],
          [
            -74.30900464821266,
            -13.265996648365958,
            3833.39
          ],
          [
            -74.30884784710156,
            -13.266037456598799,
            3832.54
          ],
          [
            -74.30869789734969,
            -13.26609556742772,
            3831.76
          ],
          [
            -74.30855216076364,
            -13.26617028507836,
            3831.14
          ],
          [
            -74.30840952406398,
            -13.266261314234583,
            3830.57
          ],
          [
            -74.30827170959482,
            -13.266367427866525,
            3830.06
          ],
          [
            -74.30813745105358,
            -13.266487317583776,
            3829.69
          ],
          [
            -74.30800437863968,
            -13.266617424516038,
            3829.17
          ],
          [
            -74.30787369278754,
            -13.266755979926172,
            3828.41
          ],
          [
            -74.30774537154934,
            -13.266900627239874,
            3827.53
          ],
          [
            -74.30761909867024,
            -13.267049745310208,
            3826.54
          ],
          [
            -74.30749678992318,
            -13.267199219442706,
            3825.62
          ],
          [
            -74.30738128968008,
            -13.267347663717707,
            3824.75
          ],
          [
            -74.30727501683802,
            -13.267496694461684,
            3823.79
          ],
          [
            -74.30718719861497,
            -13.2676463294203,
            3822.62
          ],
          [
            -74.30712226262828,
            -13.267796889092653,
            3821.5
          ],
          [
            -74.30708723270736,
            -13.267949334275665,
            3820.27
          ],
          [
            -74.307087210601,
            -13.268100283235771,
            3819.29
          ],
          [
            -74.30712767291793,
            -13.26824705933018,
            3818.54
          ],
          [
            -74.30720450885548,
            -13.268387998409077,
            3817.87
          ],
          [
            -74.30730854119433,
            -13.26852531831676,
            3817.17
          ],
          [
            -74.30743468986074,
            -13.268660002679923,
            3816.57
          ],
          [
            -74.30757825806576,
            -13.26879290640002,
            3816.07
          ],
          [
            -74.30773331025789,
            -13.268925332303635,
            3815.51
          ],
          [
            -74.30789686704288,
            -13.269057834033207,
            3814.82
          ],
          [
            -74.30806532274318,
            -13.269190878648248,
            3814.25
          ],
          [
            -74.30823713787868,
            -13.269325399592647,
            3813.67
          ],
          [
            -74.30840855341536,
            -13.269461154774154,
            3813.16
          ],
          [
            -74.30857808672313,
            -13.269597154497244,
            3812.84
          ],
          [
            -74.30874603503565,
            -13.269733184858541,
            3812.5
          ],
          [
            -74.30891073786637,
            -13.26986803112612,
            3812.13
          ],
          [
            -74.30906952652195,
            -13.270001842433032,
            3811.8
          ],
          [
            -74.30922019719306,
            -13.270130890197873,
            3811.4
          ],
          [
            -74.30935756590877,
            -13.27025552726976,
            3810.89
          ],
          [
            -74.3094753141,
            -13.270378850900233,
            3810.42
          ],
          [
            -74.3095681269805,
            -13.270504323576139,
            3809.98
          ],
          [
            -74.3096309554452,
            -13.270631841657176,
            3809.52
          ],
          [
            -74.30965999251478,
            -13.270760923419648,
            3809.12
          ],
          [
            -74.30964982874285,
            -13.270886675907033,
            3808.73
          ],
          [
            -74.30960096303762,
            -13.271003832798673,
            3808.33
          ],
          [
            -74.30951448055275,
            -13.271104439243146,
            3808.05
          ],
          [
            -74.30939134965213,
            -13.271181739095015,
            3807.76
          ],
          [
            -74.30923626914878,
            -13.271235118775694,
            3807.34
          ],
          [
            -74.30905514331404,
            -13.27126958101999,
            3806.72
          ],
          [
            -74.3088520350085,
            -13.271290607033999,
            3805.96
          ],
          [
            -74.30863310811328,
            -13.27129868564906,
            3804.8
          ],
          [
            -74.30840455558231,
            -13.271298956642136,
            3803.75
          ],
          [
            -74.30816921353757,
            -13.27129332475201,
            3802.97
          ],
          [
            -74.30793126857262,
            -13.271284469083914,
            3802.18
          ],
          [
            -74.30769318947362,
            -13.271272458998588,
            3801.45
          ],
          [
            -74.30745591879426,
            -13.271259785384261,
            3800.7
          ],
          [
            -74.30722370169889,
            -13.27124708318653,
            3799.69
          ],
          [
            -74.30699711524952,
            -13.271234800005127,
            3798.66
          ],
          [
            -74.30678446861252,
            -13.271227288368816,
            3797.48
          ],
          [
            -74.3065863432565,
            -13.271230457862522,
            3796.38
          ],
          [
            -74.30640782480664,
            -13.271252537481862,
            3795.21
          ],
          [
            -74.30625604505562,
            -13.271300585054309,
            3794.01
          ],
          [
            -74.30614204524439,
            -13.271378727415396,
            3792.77
          ],
          [
            -74.30607113800001,
            -13.271483879784702,
            3791.73
          ],
          [
            -74.30604002039063,
            -13.271611783521932,
            3790.91
          ],
          [
            -74.30604054951667,
            -13.271757834303099,
            3790.14
          ],
          [
            -74.30607084113268,
            -13.271917029398693,
            3789.45
          ],
          [
            -74.30613086794469,
            -13.272084448732317,
            3788.81
          ],
          [
            -74.30621933488705,
            -13.272254384627484,
            3788.16
          ],
          [
            -74.30633581512966,
            -13.272420789016035,
            3787.44
          ],
          [
            -74.30647653141256,
            -13.272579959071413,
            3786.54
          ],
          [
            -74.30663293268668,
            -13.272735872958798,
            3785.62
          ],
          [
            -74.30679926448458,
            -13.272884281775225,
            3784.66
          ],
          [
            -74.30696929825777,
            -13.27302571833917,
            3783.83
          ],
          [
            -74.30713777856805,
            -13.273161760232437,
            3783.18
          ],
          [
            -74.30729719854172,
            -13.273296944486724,
            3782.43
          ],
          [
            -74.30743779691547,
            -13.273436571782504,
            3781.81
          ],
          [
            -74.30755470740257,
            -13.273579491568308,
            3781.14
          ],
          [
            -74.30763988409528,
            -13.273725381666834,
            3780.68
          ],
          [
            -74.30768550059372,
            -13.273872612310276,
            3780.24
          ],
          [
            -74.3076884111687,
            -13.274015103394953,
            3779.66
          ],
          [
            -74.30764850222882,
            -13.274146640593564,
            3779.2
          ],
          [
            -74.30756422564271,
            -13.274258425166552,
            3778.4
          ],
          [
            -74.3074425389561,
            -13.274341340374594,
            3777.62
          ],
          [
            -74.30728812359887,
            -13.274392181485315,
            3776.66
          ],
          [
            -74.30710624913257,
            -13.274412210752642,
            3775.69
          ],
          [
            -74.3069026612728,
            -13.27440974050645,
            3774.78
          ],
          [
            -74.30668309097092,
            -13.274389271018736,
            3773.77
          ],
          [
            -74.30645297272468,
            -13.27435328683704,
            3772.76
          ],
          [
            -74.3062173352124,
            -13.274306147129074,
            3771.8
          ],
          [
            -74.30597950289477,
            -13.274251427877523,
            3770.83
          ],
          [
            -74.30574147474596,
            -13.274191314520696,
            3769.89
          ],
          [
            -74.30550509405477,
            -13.274129494702667,
            3769.1
          ],
          [
            -74.30527317518424,
            -13.27406654447207,
            3768.21
          ],
          [
            -74.30504751550541,
            -13.274004332843104,
            3767.36
          ],
          [
            -74.30483164898551,
            -13.273943805563722,
            3766.31
          ],
          [
            -74.30462915954,
            -13.273883572159416,
            3765.1
          ],
          [
            -74.30444025387101,
            -13.27382888131365,
            3763.84
          ],
          [
            -74.30426834829393,
            -13.273782362851875,
            3762.66
          ],
          [
            -74.30411179381787,
            -13.273747271277731,
            3761.69
          ],
          [
            -74.30396986233366,
            -13.273728131679672,
            3761.04
          ],
          [
            -74.30384571266539,
            -13.273730485436477,
            3760.76
          ],
          [
            -74.30374315670373,
            -13.273761025254274,
            3760.76
          ],
          [
            -74.30366754696587,
            -13.273821490423652,
            3760.92
          ],
          [
            -74.30361950052628,
            -13.273910337254199,
            3761.21
          ],
          [
            -74.30359486488675,
            -13.27402469279805,
            3761.58
          ],
          [
            -74.30358887089011,
            -13.274160012732477,
            3761.96
          ],
          [
            -74.30359660853861,
            -13.274311812143019,
            3762.24
          ],
          [
            -74.3036123581251,
            -13.274475718271095,
            3762.43
          ],
          [
            -74.30363599558918,
            -13.27464845493604,
            3762.81
          ],
          [
            -74.30366789547101,
            -13.274827708988425,
            3763.04
          ],
          [
            -74.30371473743506,
            -13.27500829226157,
            3763.17
          ],
          [
            -74.30378529020182,
            -13.275186343998646,
            3762.97
          ],
          [
            -74.30388389376326,
            -13.275357223264411,
            3762.64
          ],
          [
            -74.30400676103142,
            -13.27551991803892,
            3762.11
          ],
          [
            -74.30414849563756,
            -13.275676778322172,
            3761.38
          ]
        ]
      }
    }
  ]
}